{"type": "FeatureCollection", "features": [{"type": "Feature", "properties": {"norad_id": 25730, "name": "FENGYUN 1C", "group": "fengyun-1c-debris", "lat": 38.7585211998081, "lon": -127.44949688523084, "alt_km": 797.414155429974, "timestamp": "2025-12-05T09:41:19.400542+00:00", "meta": {"OBJECT_NAME": "FENGYUN 1C", "OBJECT_ID": "1999-025A", "EPOCH": "2025-12-04T16:11:33.836352", "MEAN_MOTION": 14.2598361, "ECCENTRICITY": 0.0010951, "INCLINATION": 98.8853, "RA_OF_ASC_NODE": 44.5968, "ARG_OF_PERICENTER": 90.0467, "MEAN_ANOMALY": 270.1967, "EPHEMERIS_TYPE": 0, "CLASSIFICATION_TYPE": "U", "NORAD_CAT_ID": 25730, "ELEMENT_SET_NO": 999, "REV_AT_EPOCH": 37022, "BSTAR": 0.0025422, "MEAN_MOTION_DOT": 6.027e-05, "MEAN_MOTION_DDOT": 0}, "tle": {"line1": "1 25730U 99025A   25338.67469718  .00006027  00000+0  25422-2 0  9992", "line2": "2 25730  98.8853  44.5968 0010951  90.0467 270.1967 14.25983610370223"}}, "geometry": {"type": "Point", "coordinates": [-127.44949688523084, 38.7585211998081]}}, {"type": "Feature", "properties": {"norad_id": 29733, "name": "FENGYUN 1C DEB", "group": "fengyun-1c-debris", "lat": -77.1146083192304, "lon": 81.84621106023215, "alt_km": 1048.6086771350274, "timestamp": "2025-12-05T09:41:19.400564+00:00", "meta": {"OBJECT_NAME": "FENGYUN 1C DEB", "OBJECT_ID": "1999-025X", "EPOCH": "2025-12-04T10:25:37.159104", "MEAN_MOTION": 12.96441419, "ECCENTRICITY": 0.0569418, "INCLINATION": 99.2253, "RA_OF_ASC_NODE": 35.7577, "ARG_OF_PERICENTER": 221.0743, "MEAN_ANOMALY": 211.0418, "EPHEMERIS_TYPE": 0, "CLASSIFICATION_TYPE": "U", "NORAD_CAT_ID": 29733, "ELEMENT_SET_NO": 999, "REV_AT_EPOCH": 89012, "BSTAR": 0.0029042, "MEAN_MOTION_DOT": 1.716e-05, "MEAN_MOTION_DDOT": 0}, "tle": {"line1": "1 29733U 99025X   25338.43445786  .00001716  00000+0  29042-2 0  9994", "line2": "2 29733  99.2253  35.7577 0569418 221.0743 211.0418 12.96441419890120"}}, "geometry": {"type": "Point", "coordinates": [81.84621106023215, -77.1146083192304]}}, {"type": "Feature", "properties": {"norad_id": 29734, "name": "FENGYUN 1C DEB", "group": "fengyun-1c-debris", "lat": -47.25983324391999, "lon": 80.44359450656884, "alt_km": 1744.519531718548, "timestamp": "2025-12-05T09:41:19.400578+00:00", "meta": {"OBJECT_NAME": "FENGYUN 1C DEB", "OBJECT_ID": "1999-025Y", "EPOCH": "2025-12-04T14:49:42.024000", "MEAN_MOTION": 12.91226568, "ECCENTRICITY": 0.0614502, "INCLINATION": 99.1694, "RA_OF_ASC_NODE": 269.8524, "ARG_OF_PERICENTER": 30.2935, "MEAN_ANOMALY": 148.9932, "EPHEMERIS_TYPE": 0, "CLASSIFICATION_TYPE": "U", "NORAD_CAT_ID": 29734, "ELEMENT_SET_NO": 999, "REV_AT_EPOCH": 88443, "BSTAR": 0.0076839, "MEAN_MOTION_DOT": 4.736e-05, "MEAN_MOTION_DDOT": 0}, "tle": {"line1": "1 29734U 99025Y   25338.61784750  .00004736  00000+0  76839-2 0  9993", "line2": "2 29734  99.1694 269.8524 0614502  30.2935 148.9932 12.91226568884436"}}, "geometry": {"type": "Point", "coordinates": [80.44359450656884, -47.25983324391999]}}, {"type": "Feature", "properties": {"norad_id": 29735, "name": "FENGYUN 1C DEB", "group": "fengyun-1c-debris", "lat": -39.134344470826846, "lon": 67.84523755152293, "alt_km": 883.0085883200782, "timestamp": "2025-12-05T09:41:19.400589+00:00", "meta": {"OBJECT_NAME": "FENGYUN 1C DEB", "OBJECT_ID": "1999-025Z", "EPOCH": "2025-12-04T11:49:59.359296", "MEAN_MOTION": 12.75030356, "ECCENTRICITY": 0.0697918, "INCLINATION": 99.3903, "RA_OF_ASC_NODE": 254.8243, "ARG_OF_PERICENTER": 193.6849, "MEAN_ANOMALY": 164.4428, "EPHEMERIS_TYPE": 0, "CLASSIFICATION_TYPE": "U", "NORAD_CAT_ID": 29735, "ELEMENT_SET_NO": 999, "REV_AT_EPOCH": 87310, "BSTAR": 0.0016877, "MEAN_MOTION_DOT": 9.5e-06, "MEAN_MOTION_DDOT": 0}, "tle": {"line1": "1 29735U 99025Z   25338.49304814  .00000950  00000+0  16877-2 0  9999", "line2": "2 29735  99.3903 254.8243 0697918 193.6849 164.4428 12.75030356873109"}}, "geometry": {"type": "Point", "coordinates": [67.84523755152293, -39.134344470826846]}}, {"type": "Feature", "properties": {"norad_id": 29736, "name": "FENGYUN 1C DEB", "group": "fengyun-1c-debris", "lat": 76.70067350105067, "lon": 115.70773178835843, "alt_km": 1796.5167080721185, "timestamp": "2025-12-05T09:41:19.400601+00:00", "meta": {"OBJECT_NAME": "FENGYUN 1C DEB", "OBJECT_ID": "1999-025AA", "EPOCH": "2025-12-01T23:58:11.443584", "MEAN_MOTION": 12.57457881, "ECCENTRICITY": 0.07263731, "INCLINATION": 99.4012, "RA_OF_ASC_NODE": 157.4503, "ARG_OF_PERICENTER": 221.7005, "MEAN_ANOMALY": 298.6638, "EPHEMERIS_TYPE": 0, "CLASSIFICATION_TYPE": "U", "NORAD_CAT_ID": 29736, "ELEMENT_SET_NO": 999, "REV_AT_EPOCH": 86409, "BSTAR": 0.00220533, "MEAN_MOTION_DOT": 9.74e-06, "MEAN_MOTION_DDOT": 0}, "tle": {"line1": "1 29736U 99025AA  25335.99874356  .00000974  00000+0  22053-2 0  9994", "line2": "2 29736  99.4012 157.4503 0726373 221.7005 298.6638 12.57457881864091"}}, "geometry": {"type": "Point", "coordinates": [115.70773178835843, 76.70067350105067]}}, {"type": "Feature", "properties": {"norad_id": 29737, "name": "FENGYUN 1C DEB", "group": "fengyun-1c-debris", "lat": -33.158671542674995, "lon": -57.98732298817243, "alt_km": 1939.5557143125216, "timestamp": "2025-12-05T09:41:19.400612+00:00", "meta": {"OBJECT_NAME": "FENGYUN 1C DEB", "OBJECT_ID": "1999-025AB", "EPOCH": "2025-12-02T08:41:33.064800", "MEAN_MOTION": 12.6562936, "ECCENTRICITY": 0.06942754, "INCLINATION": 99.5814, "RA_OF_ASC_NODE": 293.1372, "ARG_OF_PERICENTER": 161.1217, "MEAN_ANOMALY": 352.73, "EPHEMERIS_TYPE": 0, "CLASSIFICATION_TYPE": "U", "NORAD_CAT_ID": 29737, "ELEMENT_SET_NO": 999, "REV_AT_EPOCH": 86737, "BSTAR": 0.0013678776, "MEAN_MOTION_DOT": 6.32e-06, "MEAN_MOTION_DDOT": 0}, "tle": {"line1": "1 29737U 99025AB  25336.36218825  .00000632  00000+0  13679-2 0  9995", "line2": "2 29737  99.5814 293.1372 0694275 161.1217 352.7300 12.65629360867376"}}, "geometry": {"type": "Point", "coordinates": [-57.98732298817243, -33.158671542674995]}}, {"type": "Feature", "properties": {"norad_id": 29738, "name": "FENGYUN 1C DEB", "group": "fengyun-1c-debris", "lat": 61.266886266174176, "lon": -14.73124489385167, "alt_km": 2065.2750176856634, "timestamp": "2025-12-05T09:41:19.400622+00:00", "meta": {"OBJECT_NAME": "FENGYUN 1C DEB", "OBJECT_ID": "1999-025AC", "EPOCH": "2025-12-04T10:11:41.612352", "MEAN_MOTION": 12.60992133, "ECCENTRICITY": 0.0863575, "INCLINATION": 99.4117, "RA_OF_ASC_NODE": 146.8594, "ARG_OF_PERICENTER": 312.4849, "MEAN_ANOMALY": 40.6297, "EPHEMERIS_TYPE": 0, "CLASSIFICATION_TYPE": "U", "NORAD_CAT_ID": 29738, "ELEMENT_SET_NO": 999, "REV_AT_EPOCH": 86112, "BSTAR": 0.0028294, "MEAN_MOTION_DOT": 2.11e-05, "MEAN_MOTION_DDOT": 0}, "tle": {"line1": "1 29738U 99025AC  25338.42478718  .00002110  00000+0  28294-2 0  9996", "line2": "2 29738  99.4117 146.8594 0863575 312.4849  40.6297 12.60992133861126"}}, "geometry": {"type": "Point", "coordinates": [-14.73124489385167, 61.266886266174176]}}, {"type": "Feature", "properties": {"norad_id": 29740, "name": "FENGYUN 1C DEB", "group": "fengyun-1c-debris", "lat": 62.936561533299994, "lon": 174.89032035225472, "alt_km": 2286.1118691576494, "timestamp": "2025-12-05T09:41:19.400633+00:00", "meta": {"OBJECT_NAME": "FENGYUN 1C DEB", "OBJECT_ID": "1999-025AE", "EPOCH": "2025-12-04T07:25:44.388192", "MEAN_MOTION": 12.08325605, "ECCENTRICITY": 0.097586, "INCLINATION": 99.0432, "RA_OF_ASC_NODE": 192.2686, "ARG_OF_PERICENTER": 215.5538, "MEAN_ANOMALY": 137.6572, "EPHEMERIS_TYPE": 0, "CLASSIFICATION_TYPE": "U", "NORAD_CAT_ID": 29740, "ELEMENT_SET_NO": 999, "REV_AT_EPOCH": 82833, "BSTAR": 0.00015424, "MEAN_MOTION_DOT": 3.1e-07, "MEAN_MOTION_DDOT": 0}, "tle": {"line1": "1 29740U 99025AE  25338.30954153  .00000031  00000+0  15424-3 0  9990", "line2": "2 29740  99.0432 192.2686 0975860 215.5538 137.6572 12.08325605828336"}}, "geometry": {"type": "Point", "coordinates": [174.89032035225472, 62.936561533299994]}}, {"type": "Feature", "properties": {"norad_id": 29741, "name": "FENGYUN 1C DEB", "group": "fengyun-1c-debris", "lat": 31.066132750589816, "lon": 41.40854884994161, "alt_km": 1321.874458972592, "timestamp": "2025-12-05T09:41:19.400643+00:00", "meta": {"OBJECT_NAME": "FENGYUN 1C DEB", "OBJECT_ID": "1999-025AF", "EPOCH": "2025-12-04T15:15:45.158112", "MEAN_MOTION": 12.00893255, "ECCENTRICITY": 0.1023452, "INCLINATION": 99.1763, "RA_OF_ASC_NODE": 215.2712, "ARG_OF_PERICENTER": 79.8205, "MEAN_ANOMALY": 340.1673, "EPHEMERIS_TYPE": 0, "CLASSIFICATION_TYPE": "U", "NORAD_CAT_ID": 29741, "ELEMENT_SET_NO": 999, "REV_AT_EPOCH": 52086, "BSTAR": 0.0068665, "MEAN_MOTION_DOT": 2.66e-05, "MEAN_MOTION_DDOT": 0}, "tle": {"line1": "1 29741U 99025AF  25338.63593933  .00002660  00000+0  68665-2 0  9996", "line2": "2 29741  99.1763 215.2712 1023452  79.8205 340.1673 12.00893255520868"}}, "geometry": {"type": "Point", "coordinates": [41.40854884994161, 31.066132750589816]}}, {"type": "Feature", "properties": {"norad_id": 29748, "name": "FENGYUN 1C DEB", "group": "fengyun-1c-debris", "lat": -10.928548622669647, "lon": -85.8960331561294, "alt_km": 1155.6013292306343, "timestamp": "2025-12-05T09:41:19.400654+00:00", "meta": {"OBJECT_NAME": "FENGYUN 1C DEB", "OBJECT_ID": "1999-025AN", "EPOCH": "2025-12-03T07:16:41.439360", "MEAN_MOTION": 11.89330675, "ECCENTRICITY": 0.0823623, "INCLINATION": 99.8072, "RA_OF_ASC_NODE": 270.6311, "ARG_OF_PERICENTER": 25.6268, "MEAN_ANOMALY": 338.3319, "EPHEMERIS_TYPE": 0, "CLASSIFICATION_TYPE": "U", "NORAD_CAT_ID": 29748, "ELEMENT_SET_NO": 999, "REV_AT_EPOCH": 78621, "BSTAR": 0.20401, "MEAN_MOTION_DOT": 0.00037448, "MEAN_MOTION_DDOT": 0}, "tle": {"line1": "1 29748U 99025AN  25337.30325740  .00037448  00000+0  20401+0 0  9990", "line2": "2 29748  99.8072 270.6311 0823623  25.6268 338.3319 11.89330675786217"}}, "geometry": {"type": "Point", "coordinates": [-85.8960331561294, -10.928548622669647]}}]}